{"type": "FeatureCollection", "features": [{"type": "Feature", "properties": {"norad_id": 22675, "name": "COSMOS 2251", "group": "cosmos-2251-debris", "lat": 71.60146946258217, "lon": 84.13190994562025, "alt_km": 763.3020808005376, "timestamp": "2025-12-08T13:49:32.186371+00:00", "meta": {"OBJECT_NAME": "COSMOS 2251", "OBJECT_ID": "1993-036A", "EPOCH": "2025-12-08T06:39:55.086624", "MEAN_MOTION": 14.33202753, "ECCENTRICITY": 0.00238269, "INCLINATION": 74.0393, "RA_OF_ASC_NODE": 324.0367, "ARG_OF_PERICENTER": 47.6788, "MEAN_ANOMALY": 312.6377, "EPHEMERIS_TYPE": 0, "CLASSIFICATION_TYPE": "U", "NORAD_CAT_ID": 22675, "ELEMENT_SET_NO": 999, "REV_AT_EPOCH": 69709, "BSTAR": 0.00010213558, "MEAN_MOTION_DOT": 2.56e-06, "MEAN_MOTION_DDOT": 0}, "tle": {"line1": "1 22675U 93036A   25342.27772091  .00000256  00000+0  10214-3 0  9997", "line2": "2 22675  74.0393 324.0367 0023826  47.6788 312.6377 14.33202753697096"}}, "geometry": {"type": "Point", "coordinates": [84.13190994562025, 71.60146946258217]}}, {"type": "Feature", "properties": {"norad_id": 33757, "name": "COSMOS 2251 DEB", "group": "cosmos-2251-debris", "lat": 31.26985594435258, "lon": 141.2010728686731, "alt_km": 791.2947106924248, "timestamp": "2025-12-08T13:49:32.186405+00:00", "meta": {"OBJECT_NAME": "COSMOS 2251 DEB", "OBJECT_ID": "1993-036E", "EPOCH": "2025-12-08T06:56:45.918240", "MEAN_MOTION": 14.32579336, "ECCENTRICITY": 0.0015088, "INCLINATION": 74.0366, "RA_OF_ASC_NODE": 331.7347, "ARG_OF_PERICENTER": 345.8256, "MEAN_ANOMALY": 123.6255, "EPHEMERIS_TYPE": 0, "CLASSIFICATION_TYPE": "U", "NORAD_CAT_ID": 33757, "ELEMENT_SET_NO": 999, "REV_AT_EPOCH": 87932, "BSTAR": 8.5287868e-05, "MEAN_MOTION_DOT": 2.06e-06, "MEAN_MOTION_DDOT": 0}, "tle": {"line1": "1 33757U 93036E   25342.28942035  .00000206  00000+0  85288-4 0  9997", "line2": "2 33757  74.0366 331.7347 0015088 345.8256 123.6255 14.32579336879322"}}, "geometry": {"type": "Point", "coordinates": [141.2010728686731, 31.26985594435258]}}, {"type": "Feature", "properties": {"norad_id": 33758, "name": "COSMOS 2251 DEB", "group": "cosmos-2251-debris", "lat": 11.42901856613592, "lon": 39.55304393540561, "alt_km": 728.1501413484148, "timestamp": "2025-12-08T13:49:32.186422+00:00", "meta": {"OBJECT_NAME": "COSMOS 2251 DEB", "OBJECT_ID": "1993-036F", "EPOCH": "2025-12-08T03:51:05.192064", "MEAN_MOTION": 14.51551104, "ECCENTRICITY": 0.0017506, "INCLINATION": 74.0278, "RA_OF_ASC_NODE": 223.6548, "ARG_OF_PERICENTER": 290.7646, "MEAN_ANOMALY": 226.5807, "EPHEMERIS_TYPE": 0, "CLASSIFICATION_TYPE": "U", "NORAD_CAT_ID": 33758, "ELEMENT_SET_NO": 999, "REV_AT_EPOCH": 88238, "BSTAR": 0.0010953263, "MEAN_MOTION_DOT": 4.366e-05, "MEAN_MOTION_DDOT": 0}, "tle": {"line1": "1 33758U 93036F   25342.16047676  .00004366  00000+0  10953-2 0  9998", "line2": "2 33758  74.0278 223.6548 0017506 290.7646 226.5807 14.51551104882385"}}, "geometry": {"type": "Point", "coordinates": [39.55304393540561, 11.42901856613592]}}, {"type": "Feature", "properties": {"norad_id": 33760, "name": "COSMOS 2251 DEB", "group": "cosmos-2251-debris", "lat": -11.630169523299816, "lon": -74.2807819371944, "alt_km": 766.1353334942678, "timestamp": "2025-12-08T13:49:32.186435+00:00", "meta": {"OBJECT_NAME": "COSMOS 2251 DEB", "OBJECT_ID": "1993-036H", "EPOCH": "2025-12-08T07:44:19.026816", "MEAN_MOTION": 14.3566828, "ECCENTRICITY": 0.00196891, "INCLINATION": 74.0319, "RA_OF_ASC_NODE": 289.563, "ARG_OF_PERICENTER": 29.137, "MEAN_ANOMALY": 88.7125, "EPHEMERIS_TYPE": 0, "CLASSIFICATION_TYPE": "U", "NORAD_CAT_ID": 33760, "ELEMENT_SET_NO": 999, "REV_AT_EPOCH": 88061, "BSTAR": 0.00022625397, "MEAN_MOTION_DOT": 6.28e-06, "MEAN_MOTION_DDOT": 0}, "tle": {"line1": "1 33760U 93036H   25342.32244244  .00000628  00000+0  22625-3 0  9996", "line2": "2 33760  74.0319 289.5630 0019689  29.1370  88.7125 14.35668280880610"}}, "geometry": {"type": "Point", "coordinates": [-74.2807819371944, -11.630169523299816]}}, {"type": "Feature", "properties": {"norad_id": 33761, "name": "COSMOS 2251 DEB", "group": "cosmos-2251-debris", "lat": 5.587051771647838, "lon": 78.28378786381253, "alt_km": 767.9159153135151, "timestamp": "2025-12-08T13:49:32.186448+00:00", "meta": {"OBJECT_NAME": "COSMOS 2251 DEB", "OBJECT_ID": "1993-036J", "EPOCH": "2025-12-08T01:27:30.722400", "MEAN_MOTION": 14.42521607, "ECCENTRICITY": 0.00229104, "INCLINATION": 74.0374, "RA_OF_ASC_NODE": 260.8438, "ARG_OF_PERICENTER": 341.7072, "MEAN_ANOMALY": 37.5429, "EPHEMERIS_TYPE": 0, "CLASSIFICATION_TYPE": "U", "NORAD_CAT_ID": 33761, "ELEMENT_SET_NO": 999, "REV_AT_EPOCH": 88167, "BSTAR": 0.00074241453, "MEAN_MOTION_DOT": 2.444e-05, "MEAN_MOTION_DDOT": 0}, "tle": {"line1": "1 33761U 93036J   25342.06077225  .00002444  00000+0  74241-3 0  9990", "line2": "2 33761  74.0374 260.8438 0022910 341.7072  37.5429 14.42521607881678"}}, "geometry": {"type": "Point", "coordinates": [78.28378786381253, 5.587051771647838]}}, {"type": "Feature", "properties": {"norad_id": 33762, "name": "COSMOS 2251 DEB", "group": "cosmos-2251-debris", "lat": -41.956231374862455, "lon": -57.26788035716276, "alt_km": 781.135668589789, "timestamp": "2025-12-08T13:49:32.186460+00:00", "meta": {"OBJECT_NAME": "COSMOS 2251 DEB", "OBJECT_ID": "1993-036K", "EPOCH": "2025-12-08T07:52:10.121952", "MEAN_MOTION": 14.33661741, "ECCENTRICITY": 0.00148268, "INCLINATION": 74.0413, "RA_OF_ASC_NODE": 318.0929, "ARG_OF_PERICENTER": 20.8181, "MEAN_ANOMALY": 95.0176, "EPHEMERIS_TYPE": 0, "CLASSIFICATION_TYPE": "U", "NORAD_CAT_ID": 33762, "ELEMENT_SET_NO": 999, "REV_AT_EPOCH": 87984, "BSTAR": 0.00010156966, "MEAN_MOTION_DOT": 2.56e-06, "MEAN_MOTION_DDOT": 0}, "tle": {"line1": "1 33762U 93036K   25342.32789493  .00000256  00000+0  10157-3 0  9992", "line2": "2 33762  74.0413 318.0929 0014826  20.8181  95.0176 14.33661741879845"}}, "geometry": {"type": "Point", "coordinates": [-57.26788035716276, -41.956231374862455]}}, {"type": "Feature", "properties": {"norad_id": 33764, "name": "COSMOS 2251 DEB", "group": "cosmos-2251-debris", "lat": 8.276780980313967, "lon": -77.26767125905155, "alt_km": 770.7099885002226, "timestamp": "2025-12-08T13:49:32.186472+00:00", "meta": {"OBJECT_NAME": "COSMOS 2251 DEB", "OBJECT_ID": "1993-036M", "EPOCH": "2025-12-08T07:39:59.918400", "MEAN_MOTION": 14.39495999, "ECCENTRICITY": 0.00241175, "INCLINATION": 74.0346, "RA_OF_ASC_NODE": 280.8192, "ARG_OF_PERICENTER": 247.3361, "MEAN_ANOMALY": 231.8188, "EPHEMERIS_TYPE": 0, "CLASSIFICATION_TYPE": "U", "NORAD_CAT_ID": 33764, "ELEMENT_SET_NO": 999, "REV_AT_EPOCH": 88093, "BSTAR": 0.00065891885, "MEAN_MOTION_DOT": 2.035e-05, "MEAN_MOTION_DDOT": 0}, "tle": {"line1": "1 33764U 93036M   25342.31944350  .00002035  00000+0  65892-3 0  9991", "line2": "2 33764  74.0346 280.8192 0024117 247.3361 231.8188 14.39495999880931"}}, "geometry": {"type": "Point", "coordinates": [-77.26767125905155, 8.276780980313967]}}, {"type": "Feature", "properties": {"norad_id": 33765, "name": "COSMOS 2251 DEB", "group": "cosmos-2251-debris", "lat": -42.1288567154906, "lon": 16.746776906147442, "alt_km": 514.1891290871563, "timestamp": "2025-12-08T13:49:32.186483+00:00", "meta": {"OBJECT_NAME": "COSMOS 2251 DEB", "OBJECT_ID": "1993-036N", "EPOCH": "2025-12-08T07:14:16.452384", "MEAN_MOTION": 15.09582822, "ECCENTRICITY": 0.0066539, "INCLINATION": 74.0091, "RA_OF_ASC_NODE": 182.2804, "ARG_OF_PERICENTER": 275.1983, "MEAN_ANOMALY": 258.4767, "EPHEMERIS_TYPE": 0, "CLASSIFICATION_TYPE": "U", "NORAD_CAT_ID": 33765, "ELEMENT_SET_NO": 999, "REV_AT_EPOCH": 89551, "BSTAR": 0.0021577048, "MEAN_MOTION_DOT": 0.00036665, "MEAN_MOTION_DDOT": 0}, "tle": {"line1": "1 33765U 93036N   25342.30157931  .00036665  00000+0  21577-2 0  9999", "line2": "2 33765  74.0091 182.2804 0066539 275.1983 258.4767 15.09582822895515"}}, "geometry": {"type": "Point", "coordinates": [16.746776906147442, -42.1288567154906]}}, {"type": "Feature", "properties": {"norad_id": 33766, "name": "COSMOS 2251 DEB", "group": "cosmos-2251-debris", "lat": 57.173196770690474, "lon": -63.52213975983234, "alt_km": 799.9530304982845, "timestamp": "2025-12-08T13:49:32.186495+00:00", "meta": {"OBJECT_NAME": "COSMOS 2251 DEB", "OBJECT_ID": "1993-036P", "EPOCH": "2025-12-08T03:14:05.720352", "MEAN_MOTION": 14.34913029, "ECCENTRICITY": 0.00639233, "INCLINATION": 74.1854, "RA_OF_ASC_NODE": 143.341, "ARG_OF_PERICENTER": 348.0142, "MEAN_ANOMALY": 11.9485, "EPHEMERIS_TYPE": 0, "CLASSIFICATION_TYPE": "U", "NORAD_CAT_ID": 33766, "ELEMENT_SET_NO": 999, "REV_AT_EPOCH": 87679, "BSTAR": 0.0006866593, "MEAN_MOTION_DOT": 1.973e-05, "MEAN_MOTION_DDOT": 0}, "tle": {"line1": "1 33766U 93036P   25342.13478843  .00001973  00000+0  68666-3 0  9994", "line2": "2 33766  74.1854 143.3410 0063923 348.0142  11.9485 14.34913029876798"}}, "geometry": {"type": "Point", "coordinates": [-63.52213975983234, 57.173196770690474]}}, {"type": "Feature", "properties": {"norad_id": 33768, "name": "COSMOS 2251 DEB", "group": "cosmos-2251-debris", "lat": 60.119163696739264, "lon": 16.779175461676804, "alt_km": 1026.7467460253838, "timestamp": "2025-12-08T13:49:32.186506+00:00", "meta": {"OBJECT_NAME": "COSMOS 2251 DEB", "OBJECT_ID": "1993-036R", "EPOCH": "2025-12-08T03:12:59.898240", "MEAN_MOTION": 13.58448709, "ECCENTRICITY": 0.0366089, "INCLINATION": 74.0687, "RA_OF_ASC_NODE": 227.3002, "ARG_OF_PERICENTER": 26.0517, "MEAN_ANOMALY": 84.3718, "EPHEMERIS_TYPE": 0, "CLASSIFICATION_TYPE": "U", "NORAD_CAT_ID": 33768, "ELEMENT_SET_NO": 999, "REV_AT_EPOCH": 83233, "BSTAR": 0.00053836804, "MEAN_MOTION_DOT": 5.87e-06, "MEAN_MOTION_DDOT": 0}, "tle": {"line1": "1 33768U 93036R   25342.13402660  .00000587  00000+0  53837-3 0  9994", "line2": "2 33768  74.0687 227.3002 0366089  26.0517  84.3718 13.58448709832339"}}, "geometry": {"type": "Point", "coordinates": [16.779175461676804, 60.119163696739264]}}]}